[
    {
        "Altitude(m)": 709518.4383032905,
        "Argument of Periapsis(deg)": 0.0022780242373254137,
        "Eccentricity": 0.0,
        "Inclination(deg)": 45.0,
        "Latitude(deg)": -24.117154745499978,
        "Longitude(deg)": -93.68927837403017,
        "Mean Anomaly(deg)": -144.96605667050386,
        "RAAN(deg)": 159.99784961170835,
        "Satellite Name": "Constellation 1 717",
        "Satellite Number": 717,
        "Semi-Major Axis(m)": 7083131.272910544,
        "Time(s)": 38
    },
    {
        "Altitude(m)": 709532.1573977346,
        "Argument of Periapsis(deg)": 0.002337972243570819,
        "Eccentricity": 0.0,
        "Inclination(deg)": 45.0,
        "Latitude(deg)": -24.15572707601355,
        "Longitude(deg)": -93.64205111742503,
        "Mean Anomaly(deg)": -144.90535553025396,
        "RAAN(deg)": 159.9977930225428,
        "Satellite Name": "Constellation 1 717",
        "Satellite Number": 717,
        "Semi-Major Axis(m)": 7083131.272910544,
        "Time(s)": 39
    },
    {
        "Altitude(m)": 709545.8799249617,
        "Argument of Periapsis(deg)": 0.0023979202498162246,
        "Eccentricity": 0.0,
        "Inclination(deg)": 45.0,
        "Latitude(deg)": -24.194281845419816,
        "Longitude(deg)": -93.59479317199688,
        "Mean Anomaly(deg)": -144.84465439000402,
        "RAAN(deg)": 159.9977364333772,
        "Satellite Name": "Constellation 1 717",
        "Satellite Number": 717,
        "Semi-Major Axis(m)": 7083131.272910544,
        "Time(s)": 40
    },
    {
        "Altitude(m)": 709559.6058386419,
        "Argument of Periapsis(deg)": 0.00245786825606163,
        "Eccentricity": 0.0,
        "Inclination(deg)": 45.0,
        "Latitude(deg)": -24.232819012386326,
        "Longitude(deg)": -93.54750447776736,
        "Mean Anomaly(deg)": -144.78395324975415,
        "RAAN(deg)": 159.99767984421166,
        "Satellite Name": "Constellation 1 717",
        "Satellite Number": 717,
        "Semi-Major Axis(m)": 7083131.272910544,
        "Time(s)": 41
    },
    {
        "Altitude(m)": 709573.3350924026,
        "Argument of Periapsis(deg)": 0.002517816262307036,
        "Eccentricity": 0.0,
        "Inclination(deg)": 45.0,
        "Latitude(deg)": -24.271338535521135,
        "Longitude(deg)": -93.50018497474723,
        "Mean Anomaly(deg)": -144.7232521095042,
        "RAAN(deg)": 159.99762325504605,
        "Satellite Name": "Constellation 1 717",
        "Satellite Number": 717,
        "Semi-Major Axis(m)": 7083131.272910544,
        "Time(s)": 42
    },
    {
        "Altitude(m)": 709587.067639862,
        "Argument of Periapsis(deg)": 0.0025777642685524413,
        "Eccentricity": 0.0,
        "Inclination(deg)": 45.0,
        "Latitude(deg)": -24.309840373372307,
        "Longitude(deg)": -93.45283460293683,
        "Mean Anomaly(deg)": -144.66255096925434,
        "RAAN(deg)": 159.9975666658805,
        "Satellite Name": "Constellation 1 717",
        "Satellite Number": 717,
        "Semi-Major Axis(m)": 7083131.272910544,
        "Time(s)": 43
    },
    {
        "Altitude(m)": 709600.8034345995,
        "Argument of Periapsis(deg)": 0.002637712274797847,
        "Eccentricity": 0.0,
        "Inclination(deg)": 45.0,
        "Latitude(deg)": -24.348324484428186,
        "Longitude(deg)": -93.4054534704234,
        "Mean Anomaly(deg)": -144.6018498290044,
        "RAAN(deg)": 159.99751007671492,
        "Satellite Name": "Constellation 1 717",
        "Satellite Number": 717,
        "Semi-Major Axis(m)": 7083131.272910544,
        "Time(s)": 44
    },
    {
        "Altitude(m)": 709614.5424301752,
        "Argument of Periapsis(deg)": 0.0026976602810432526,
        "Eccentricity": 0.0,
        "Inclination(deg)": 45.0,
        "Latitude(deg)": -24.38679082711715,
        "Longitude(deg)": -93.35804118099264,
        "Mean Anomaly(deg)": -144.5411486887545,
        "RAAN(deg)": 159.99745348754936,
        "Satellite Name": "Constellation 1 717",
        "Satellite Number": 717,
        "Semi-Major Axis(m)": 7083131.272910544,
        "Time(s)": 45
    },
    {
        "Altitude(m)": 709628.2845801306,
        "Argument of Periapsis(deg)": 0.0027576082872886585,
        "Eccentricity": 0.0,
        "Inclination(deg)": 45.0,
        "Latitude(deg)": -24.42523935980733,
        "Longitude(deg)": -93.31059784271216,
        "Mean Anomaly(deg)": -144.48044754850466,
        "RAAN(deg)": 159.9973968983838,
        "Satellite Name": "Constellation 1 717",
        "Satellite Number": 717,
        "Semi-Major Axis(m)": 7083131.272910544,
        "Time(s)": 46
    },
    {
        "Altitude(m)": 709642.0298379612,
        "Argument of Periapsis(deg)": 0.0028175562935340644,
        "Eccentricity": 0.0,
        "Inclination(deg)": 45.0,
        "Latitude(deg)": -24.463670040806818,
        "Longitude(deg)": -93.26312339554283,
        "Mean Anomaly(deg)": -144.41974640825475,
        "RAAN(deg)": 159.9973403092182,
        "Satellite Name": "Constellation 1 717",
        "Satellite Number": 717,
        "Semi-Major Axis(m)": 7083131.272910544,
        "Time(s)": 47
    },
    {
        "Altitude(m)": 709655.7781571655,
        "Argument of Periapsis(deg)": 0.00287750429977947,
        "Eccentricity": 0.0,
        "Inclination(deg)": 45.0,
        "Latitude(deg)": -24.502082828363264,
        "Longitude(deg)": -93.21561777943627,
        "Mean Anomaly(deg)": -144.35904526800482,
        "RAAN(deg)": 159.99728372005265,
        "Satellite Name": "Constellation 1 717",
        "Satellite Number": 717,
        "Semi-Major Axis(m)": 7083131.272910544,
        "Time(s)": 48
    },
    {
        "Altitude(m)": 709669.5294912006,
        "Argument of Periapsis(deg)": 0.002937452306024875,
        "Eccentricity": 0.0,
        "Inclination(deg)": 45.0,
        "Latitude(deg)": -24.540477680663965,
        "Longitude(deg)": -93.1680809343352,
        "Mean Anomaly(deg)": -144.29834412775494,
        "RAAN(deg)": 159.9972271308871,
        "Satellite Name": "Constellation 1 717",
        "Satellite Number": 717,
        "Semi-Major Axis(m)": 7083131.272910544,
        "Time(s)": 49
    },
    {
        "Altitude(m)": 709683.2837935025,
        "Argument of Periapsis(deg)": 0.0029974003122702807,
        "Eccentricity": 0.0,
        "Inclination(deg)": 45.0,
        "Latitude(deg)": -24.57885455583576,
        "Longitude(deg)": -93.12051280017361,
        "Mean Anomaly(deg)": -144.237642987505,
        "RAAN(deg)": 159.99717054172152,
        "Satellite Name": "Constellation 1 717",
        "Satellite Number": 717,
        "Semi-Major Axis(m)": 7083131.272910544,
        "Time(s)": 50
    },
    {
        "Altitude(m)": 709697.0410174816,
        "Argument of Periapsis(deg)": 0.0030573483185156866,
        "Eccentricity": 0.0,
        "Inclination(deg)": 45.0,
        "Latitude(deg)": -24.617213411944757,
        "Longitude(deg)": -93.07291331687712,
        "Mean Anomaly(deg)": -144.17694184725516,
        "RAAN(deg)": 159.99711395255596,
        "Satellite Name": "Constellation 1 717",
        "Satellite Number": 717,
        "Semi-Major Axis(m)": 7083131.272910544,
        "Time(s)": 51
    },
    {
        "Altitude(m)": 709710.8011165237,
        "Argument of Periapsis(deg)": 0.003117296324761092,
        "Eccentricity": 0.0,
        "Inclination(deg)": 45.0,
        "Latitude(deg)": -24.65555420699649,
        "Longitude(deg)": -93.02528259246016,
        "Mean Anomaly(deg)": -144.11624070700523,
        "RAAN(deg)": 159.99705736339038,
        "Satellite Name": "Constellation 1 717",
        "Satellite Number": 717,
        "Semi-Major Axis(m)": 7083131.272910544,
        "Time(s)": 52
    },
    {
        "Altitude(m)": 709724.5640439985,
        "Argument of Periapsis(deg)": 0.0031772443310064975,
        "Eccentricity": 0.0,
        "Inclination(deg)": 45.0,
        "Latitude(deg)": -24.693876898935567,
        "Longitude(deg)": -92.97762023063801,
        "Mean Anomaly(deg)": -144.05553956675536,
        "RAAN(deg)": 159.99700077422483,
        "Satellite Name": "Constellation 1 717",
        "Satellite Number": 717,
        "Semi-Major Axis(m)": 7083131.272910544,
        "Time(s)": 53
    },
    {
        "Altitude(m)": 709738.3297532446,
        "Argument of Periapsis(deg)": 0.0032371923372519038,
        "Eccentricity": 0.0,
        "Inclination(deg)": 45.0,
        "Latitude(deg)": -24.732181445645715,
        "Longitude(deg)": -92.92992633940959,
        "Mean Anomaly(deg)": -143.99483842650542,
        "RAAN(deg)": 159.99694418505925,
        "Satellite Name": "Constellation 1 717",
        "Satellite Number": 717,
        "Semi-Major Axis(m)": 7083131.272910544,
        "Time(s)": 54
    },
    {
        "Altitude(m)": 709752.098197582,
        "Argument of Periapsis(deg)": 0.0032971403434973088,
        "Eccentricity": 0.0,
        "Inclination(deg)": 45.0,
        "Latitude(deg)": -24.770467804949593,
        "Longitude(deg)": -92.88220085866946,
        "Mean Anomaly(deg)": -143.93413728625558,
        "RAAN(deg)": 159.99688759589367,
        "Satellite Name": "Constellation 1 717",
        "Satellite Number": 717,
        "Semi-Major Axis(m)": 7083131.272910544,
        "Time(s)": 55
    },
    {
        "Altitude(m)": 709765.8693303003,
        "Argument of Periapsis(deg)": 0.0033570883497427146,
        "Eccentricity": 0.0,
        "Inclination(deg)": 45.0,
        "Latitude(deg)": -24.8087359346088,
        "Longitude(deg)": -92.83444372830495,
        "Mean Anomaly(deg)": -143.87343614600567,
        "RAAN(deg)": 159.99683100672812,
        "Satellite Name": "Constellation 1 717",
        "Satellite Number": 717,
        "Semi-Major Axis(m)": 7083131.272910544,
        "Time(s)": 56
    }
]